[
  {
    "OBJECT_NAME": "STARLINK-33612",
    "OBJECT_ID": "25057U",
    "EPOCH": "2025-11-11T03:23:01.408992",
    "MEAN_MOTION": 15.27598301,
    "ECCENTRICITY": 0.0001495,
    "INCLINATION": 43.0018,
    "RA_OF_ASC_NODE": 340.6352,
    "ARG_OF_PERICENTER": 186.161,
    "MEAN_ANOMALY": 173.9224,
    "EPHEMERIS_TYPE": 0,
    "CLASSIFICATION_TYPE": "U",
    "NORAD_CAT_ID": 63325,
    "ELEMENT_SET_NO": 999,
    "REV_AT_EPOCH": 3764,
    "BSTAR": 0.0010263,
    "MEAN_MOTION_DOT": 0.00028103,
    "MEAN_MOTION_DDOT": 0.0,
    "TLE_LINE1": "1 63325U 25057U   25315.14098853  .00028103  00000+0  10263-2 0  9999",
    "TLE_LINE2": "2 63325  43.0018 340.6352 0001495 186.1610 173.9224 15.27598301 37641",
    "COMMENT": "Grouped by shell and plane from TLE"
  },
  {
    "OBJECT_NAME": "STARLINK-33672",
    "OBJECT_ID": "25057V",
    "EPOCH": "2025-11-11T02:25:39.164736",
    "MEAN_MOTION": 15.27608568,
    "ECCENTRICITY": 0.0001001,
    "INCLINATION": 43.0017,
    "RA_OF_ASC_NODE": 340.3225,
    "ARG_OF_PERICENTER": 266.0086,
    "MEAN_ANOMALY": 94.0652,
    "EPHEMERIS_TYPE": 0,
    "CLASSIFICATION_TYPE": "U",
    "NORAD_CAT_ID": 63326,
    "ELEMENT_SET_NO": 999,
    "REV_AT_EPOCH": 3764,
    "BSTAR": 0.0016913,
    "MEAN_MOTION_DOT": 0.00046615,
    "MEAN_MOTION_DDOT": 0.0,
    "TLE_LINE1": "1 63326U 25057V   25315.10114774  .00046615  00000+0  16913-2 0  9993",
    "TLE_LINE2": "2 63326  43.0017 340.3225 0001001 266.0086  94.0652 15.27608568 37640",
    "COMMENT": "Grouped by shell and plane from TLE"
  },
  {
    "OBJECT_NAME": "STARLINK-33674",
    "OBJECT_ID": "25057Y",
    "EPOCH": "2025-11-11T02:58:58.047744",
    "MEAN_MOTION": 15.2758246,
    "ECCENTRICITY": 0.0001294,
    "INCLINATION": 43.0053,
    "RA_OF_ASC_NODE": 340.5087,
    "ARG_OF_PERICENTER": 280.1563,
    "MEAN_ANOMALY": 79.9142,
    "EPHEMERIS_TYPE": 0,
    "CLASSIFICATION_TYPE": "U",
    "NORAD_CAT_ID": 63329,
    "ELEMENT_SET_NO": 999,
    "REV_AT_EPOCH": 3764,
    "BSTAR": 0.0013358999999999999,
    "MEAN_MOTION_DOT": 0.00036685,
    "MEAN_MOTION_DDOT": 0.0,
    "TLE_LINE1": "1 63329U 25057Y   25315.12428296  .00036685  00000+0  13359-2 0  9992",
    "TLE_LINE2": "2 63329  43.0053 340.5087 0001294 280.1563  79.9142 15.27582460 37640",
    "COMMENT": "Grouped by shell and plane from TLE"
  },
  {
    "OBJECT_NAME": "STARLINK-33816",
    "OBJECT_ID": "25085P",
    "EPOCH": "2025-11-11T02:44:14.065152",
    "MEAN_MOTION": 15.27591968,
    "ECCENTRICITY": 7.62e-05,
    "INCLINATION": 42.9979,
    "RA_OF_ASC_NODE": 340.7141,
    "ARG_OF_PERICENTER": 305.9698,
    "MEAN_ANOMALY": 54.1083,
    "EPHEMERIS_TYPE": 0,
    "CLASSIFICATION_TYPE": "U",
    "NORAD_CAT_ID": 63677,
    "ELEMENT_SET_NO": 999,
    "REV_AT_EPOCH": 3083,
    "BSTAR": 0.0010429,
    "MEAN_MOTION_DOT": 0.00028557,
    "MEAN_MOTION_DDOT": 0.0,
    "TLE_LINE1": "1 63677U 25085P   25315.11405168  .00028557  00000+0  10429-2 0  9995",
    "TLE_LINE2": "2 63677  42.9979 340.7141 0000762 305.9698  54.1083 15.27591968 30834",
    "COMMENT": "Grouped by shell and plane from TLE"
  },
  {
    "OBJECT_NAME": "STARLINK-33861",
    "OBJECT_ID": "25085Q",
    "EPOCH": "2025-11-11T02:51:38.186208",
    "MEAN_MOTION": 15.27594486,
    "ECCENTRICITY": 0.0001033,
    "INCLINATION": 43.0027,
    "RA_OF_ASC_NODE": 340.7527,
    "ARG_OF_PERICENTER": 269.7887,
    "MEAN_ANOMALY": 90.2847,
    "EPHEMERIS_TYPE": 0,
    "CLASSIFICATION_TYPE": "U",
    "NORAD_CAT_ID": 63678,
    "ELEMENT_SET_NO": 999,
    "REV_AT_EPOCH": 3072,
    "BSTAR": 0.00093629,
    "MEAN_MOTION_DOT": 0.00025603,
    "MEAN_MOTION_DDOT": 0.0,
    "TLE_LINE1": "1 63678U 25085Q   25315.11919197  .00025603  00000+0  93629-3 0  9991",
    "TLE_LINE2": "2 63678  43.0027 340.7527 0001033 269.7887  90.2847 15.27594486 30723",
    "COMMENT": "Grouped by shell and plane from TLE"
  },
  {
    "OBJECT_NAME": "STARLINK-33850",
    "OBJECT_ID": "25085R",
    "EPOCH": "2025-11-11T02:23:52.868544",
    "MEAN_MOTION": 15.27600182,
    "ECCENTRICITY": 7.73e-05,
    "INCLINATION": 43.0034,
    "RA_OF_ASC_NODE": 340.6134,
    "ARG_OF_PERICENTER": 173.0527,
    "MEAN_ANOMALY": 187.0335,
    "EPHEMERIS_TYPE": 0,
    "CLASSIFICATION_TYPE": "U",
    "NORAD_CAT_ID": 63679,
    "ELEMENT_SET_NO": 999,
    "REV_AT_EPOCH": 3072,
    "BSTAR": 0.0011249,
    "MEAN_MOTION_DOT": 0.0003084,
    "MEAN_MOTION_DDOT": 0.0,
    "TLE_LINE1": "1 63679U 25085R   25315.09991746  .00030840  00000+0  11249-2 0  9995",
    "TLE_LINE2": "2 63679  43.0034 340.6134 0000773 173.0527 187.0335 15.27600182 30721",
    "COMMENT": "Grouped by shell and plane from TLE"
  },
  {
    "OBJECT_NAME": "STARLINK-33887",
    "OBJECT_ID": "25085S",
    "EPOCH": "2025-11-11T03:13:37.655040",
    "MEAN_MOTION": 15.27602818,
    "ECCENTRICITY": 0.000136,
    "INCLINATION": 43.0015,
    "RA_OF_ASC_NODE": 340.0042,
    "ARG_OF_PERICENTER": 261.9465,
    "MEAN_ANOMALY": 98.1232,
    "EPHEMERIS_TYPE": 0,
    "CLASSIFICATION_TYPE": "U",
    "NORAD_CAT_ID": 63680,
    "ELEMENT_SET_NO": 999,
    "REV_AT_EPOCH": 3080,
    "BSTAR": 0.0011757,
    "MEAN_MOTION_DOT": 0.00032254,
    "MEAN_MOTION_DDOT": 0.0,
    "TLE_LINE1": "1 63680U 25085S   25315.13446360  .00032254  00000+0  11757-2 0  9994",
    "TLE_LINE2": "2 63680  43.0015 340.0042 0001360 261.9465  98.1232 15.27602818 30800",
    "COMMENT": "Grouped by shell and plane from TLE"
  },
  {
    "OBJECT_NAME": "STARLINK-33840",
    "OBJECT_ID": "25085U",
    "EPOCH": "2025-11-11T02:46:05.043360",
    "MEAN_MOTION": 15.27595868,
    "ECCENTRICITY": 0.0001061,
    "INCLINATION": 43.002,
    "RA_OF_ASC_NODE": 340.7215,
    "ARG_OF_PERICENTER": 255.4687,
    "MEAN_ANOMALY": 104.6047,
    "EPHEMERIS_TYPE": 0,
    "CLASSIFICATION_TYPE": "U",
    "NORAD_CAT_ID": 63682,
    "ELEMENT_SET_NO": 999,
    "REV_AT_EPOCH": 3073,
    "BSTAR": 0.0018681000000000001,
    "MEAN_MOTION_DOT": 0.00051529,
    "MEAN_MOTION_DDOT": 0.0,
    "TLE_LINE1": "1 63682U 25085U   25315.11533615  .00051529  00000+0  18681-2 0  9993",
    "TLE_LINE2": "2 63682  43.0020 340.7215 0001061 255.4687 104.6047 15.27595868 30734",
    "COMMENT": "Grouped by shell and plane from TLE"
  },
  {
    "OBJECT_NAME": "STARLINK-33851",
    "OBJECT_ID": "25085V",
    "EPOCH": "2025-11-11T01:57:58.577472",
    "MEAN_MOTION": 15.27601031,
    "ECCENTRICITY": 9.89e-05,
    "INCLINATION": 42.999,
    "RA_OF_ASC_NODE": 340.4671,
    "ARG_OF_PERICENTER": 265.2655,
    "MEAN_ANOMALY": 94.8084,
    "EPHEMERIS_TYPE": 0,
    "CLASSIFICATION_TYPE": "U",
    "NORAD_CAT_ID": 63683,
    "ELEMENT_SET_NO": 999,
    "REV_AT_EPOCH": 3073,
    "BSTAR": 0.001322,
    "MEAN_MOTION_DOT": 0.00036318,
    "MEAN_MOTION_DDOT": 0.0,
    "TLE_LINE1": "1 63683U 25085V   25315.08192798  .00036318  00000+0  13220-2 0  9996",
    "TLE_LINE2": "2 63683  42.9990 340.4671 0000989 265.2655  94.8084 15.27601031 30735",
    "COMMENT": "Grouped by shell and plane from TLE"
  },
  {
    "OBJECT_NAME": "STARLINK-33853",
    "OBJECT_ID": "25085W",
    "EPOCH": "2025-11-11T01:52:25.518432",
    "MEAN_MOTION": 15.27608427,
    "ECCENTRICITY": 7.61e-05,
    "INCLINATION": 43.0002,
    "RA_OF_ASC_NODE": 340.4418,
    "ARG_OF_PERICENTER": 289.9384,
    "MEAN_ANOMALY": 70.1386,
    "EPHEMERIS_TYPE": 0,
    "CLASSIFICATION_TYPE": "U",
    "NORAD_CAT_ID": 63684,
    "ELEMENT_SET_NO": 999,
    "REV_AT_EPOCH": 3073,
    "BSTAR": 0.0017558,
    "MEAN_MOTION_DOT": 0.00048414,
    "MEAN_MOTION_DDOT": 0.0,
    "TLE_LINE1": "1 63684U 25085W   25315.07807313  .00048414  00000+0  17558-2 0  9990",
    "TLE_LINE2": "2 63684  43.0002 340.4418 0000761 289.9384  70.1386 15.27608427 30739",
    "COMMENT": "Grouped by shell and plane from TLE"
  },
  {
    "OBJECT_NAME": "STARLINK-33847",
    "OBJECT_ID": "25085X",
    "EPOCH": "2025-11-11T02:31:16.919616",
    "MEAN_MOTION": 15.2760433,
    "ECCENTRICITY": 2.28e-05,
    "INCLINATION": 42.9994,
    "RA_OF_ASC_NODE": 340.6466,
    "ARG_OF_PERICENTER": 233.3335,
    "MEAN_ANOMALY": 126.7496,
    "EPHEMERIS_TYPE": 0,
    "CLASSIFICATION_TYPE": "U",
    "NORAD_CAT_ID": 63685,
    "ELEMENT_SET_NO": 999,
    "REV_AT_EPOCH": 3073,
    "BSTAR": 0.0010893,
    "MEAN_MOTION_DOT": 0.00029858,
    "MEAN_MOTION_DDOT": 0.0,
    "TLE_LINE1": "1 63685U 25085X   25315.10505694  .00029858  00000+0  10893-2 0  9998",
    "TLE_LINE2": "2 63685  42.9994 340.6466 0000228 233.3335 126.7496 15.27604330 30739",
    "COMMENT": "Grouped by shell and plane from TLE"
  },
  {
    "OBJECT_NAME": "STARLINK-33880",
    "OBJECT_ID": "25085Y",
    "EPOCH": "2025-11-11T02:49:47.048160",
    "MEAN_MOTION": 15.27593655,
    "ECCENTRICITY": 0.0001055,
    "INCLINATION": 43.0024,
    "RA_OF_ASC_NODE": 340.7393,
    "ARG_OF_PERICENTER": 245.1346,
    "MEAN_ANOMALY": 114.9397,
    "EPHEMERIS_TYPE": 0,
    "CLASSIFICATION_TYPE": "U",
    "NORAD_CAT_ID": 63686,
    "ELEMENT_SET_NO": 999,
    "REV_AT_EPOCH": 3084,
    "BSTAR": 0.0010682,
    "MEAN_MOTION_DOT": 0.00029261,
    "MEAN_MOTION_DDOT": 0.0,
    "TLE_LINE1": "1 63686U 25085Y   25315.11790565  .00029261  00000+0  10682-2 0  9997",
    "TLE_LINE2": "2 63686  43.0024 340.7393 0001055 245.1346 114.9397 15.27593655 30846",
    "COMMENT": "Grouped by shell and plane from TLE"
  },
  {
    "OBJECT_NAME": "STARLINK-34981",
    "OBJECT_ID": "25176A",
    "EPOCH": "2025-11-11T07:09:08.076960",
    "MEAN_MOTION": 15.30207425,
    "ECCENTRICITY": 0.0001115,
    "INCLINATION": 53.1585,
    "RA_OF_ASC_NODE": 345.5157,
    "ARG_OF_PERICENTER": 101.3241,
    "MEAN_ANOMALY": 258.7886,
    "EPHEMERIS_TYPE": 0,
    "CLASSIFICATION_TYPE": "U",
    "NORAD_CAT_ID": 65198,
    "ELEMENT_SET_NO": 999,
    "REV_AT_EPOCH": 1495,
    "BSTAR": 0.00066287,
    "MEAN_MOTION_DOT": 0.00019329,
    "MEAN_MOTION_DDOT": 0.0,
    "TLE_LINE1": "1 65198U 25176A   25315.29801015  .00019329  00000+0  66287-3 0  9997",
    "TLE_LINE2": "2 65198  53.1585 345.5157 0001115 101.3241 258.7886 15.30207425 14950",
    "COMMENT": "Grouped by shell and plane from TLE"
  }
]